[{"OBJECT_NAME":"CUBESX-HSE 3 (RS42S)","OBJECT_ID":"2023-091N","EPOCH":"2026-03-09T22:57:25.321248","MEAN_MOTION":15.286147,"ECCENTRICITY":0.00127191,"INCLINATION":97.5203,"RA_OF_ASC_NODE":133.4295,"ARG_OF_PERICENTER":86.5376,"MEAN_ANOMALY":273.7318,"EPHEMERIS_TYPE":0,"CLASSIFICATION_TYPE":"U","NORAD_CAT_ID":57178,"ELEMENT_SET_NO":999,"REV_AT_EPOCH":14925,"BSTAR":0.00059055694,"MEAN_MOTION_DOT":0.00016417,"MEAN_MOTION_DDOT":0},{"OBJECT_NAME":"STARLINK-36155","OBJECT_ID":"2025-286P","EPOCH":"2026-03-09T22:41:26.860992","MEAN_MOTION":15.30215386,"ECCENTRICITY":0.00011913,"INCLINATION":53.1617,"RA_OF_ASC_NODE":357.4215,"ARG_OF_PERICENTER":117.9183,"MEAN_ANOMALY":242.1938,"EPHEMERIS_TYPE":0,"CLASSIFICATION_TYPE":"U","NORAD_CAT_ID":66938,"ELEMENT_SET_NO":999,"REV_AT_EPOCH":1545,"BSTAR":0.0011487825,"MEAN_MOTION_DOT":0.00033836,"MEAN_MOTION_DDOT":0}]
